1 38228U 97051ZC  26109.44212013  .00000460  00000+0  17526-3 0  9993
2 38228  86.2980 354.1857 0064862 138.0938 344.9597 14.27520130866038
